ESEO                    
1 43792U 18099AL  26068.65529582  .00002831  00000+0  20935-3 0  9991
2 43792  97.4113 110.2601 0011063 317.6000  42.4371 15.03914518396849
STARLINK-30344          
1 57737U 23131F   26068.34070329  .00004123  00000+0  29947-3 0  9992
2 57737  43.0028 173.5261 0000919 276.7345  83.3394 15.05076941139872
