[{"OBJECT_NAME":"ESEO","OBJECT_ID":"2018-099AL","EPOCH":"2026-03-09T15:43:37.559712","MEAN_MOTION":15.03914518,"ECCENTRICITY":0.00110626,"INCLINATION":97.4113,"RA_OF_ASC_NODE":110.2601,"ARG_OF_PERICENTER":317.6,"MEAN_ANOMALY":42.4371,"EPHEMERIS_TYPE":0,"CLASSIFICATION_TYPE":"U","NORAD_CAT_ID":43792,"ELEMENT_SET_NO":999,"REV_AT_EPOCH":39684,"BSTAR":0.00020934561,"MEAN_MOTION_DOT":2.831e-5,"MEAN_MOTION_DDOT":0},{"OBJECT_NAME":"STARLINK-30344","OBJECT_ID":"2023-131F","EPOCH":"2026-03-09T08:10:36.764256","MEAN_MOTION":15.05076941,"ECCENTRICITY":9.19e-5,"INCLINATION":43.0028,"RA_OF_ASC_NODE":173.5261,"ARG_OF_PERICENTER":276.7345,"MEAN_ANOMALY":83.3394,"EPHEMERIS_TYPE":0,"CLASSIFICATION_TYPE":"U","NORAD_CAT_ID":57737,"ELEMENT_SET_NO":999,"REV_AT_EPOCH":13987,"BSTAR":0.00029946708,"MEAN_MOTION_DOT":4.123e-5,"MEAN_MOTION_DDOT":0}]
